0 FENGYUN 1C DEB
1 36263U 99025DWQ 13280.64105853  .00001614  00000-0  81182-3 0  2865
2 36263 099.0111 340.9059 0055494 141.4522 010.9624 14.17088012247051
0 FENGYUN 1C DEB
1 36263U 99025DWQ 13287.40136694  .00002120  00000-0  10589-2 0  2880
2 36263 099.0056 347.7545 0055163 123.1908 298.1996 14.17118709248018
0 FENGYUN 1C DEB
1 36263U 99025DWQ 13290.14304733  .00003192  00000-0  15818-2 0  2897
2 36263 099.0005 350.5268 0055717 114.9211 245.7999 14.17136625248407
0 FENGYUN 1C DEB
1 36263U 99025DWQ 13290.14872388  .00002921  00000-0  14502-2 0  2903
2 36263 099.0055 350.5363 0055092 115.4423 274.2120 14.17132651248403
0 FENGYUN 1C DEB
1 36263U 99025DWQ 13292.41479318  .00002849  00000-0  14149-2 0  2918
2 36263 099.0045 352.8312 0054965 109.1850 314.8312 14.17143685248721
